NORAD_CAT_ID,OBJECT_NAME,OBJECT_TYPE,EPOCH,MEAN_MOTION,ECCENTRICITY,INCLINATION,RA_OF_ASC_NODE,ARG_OF_PERICENTER,MEAN_ANOMALY,BSTAR,MEAN_MOTION_DOT,MEAN_MOTION_DDOT,TLE_LINE0,TLE_LINE1,TLE_LINE2,SEMIMAJOR_AXIS,PERIOD,APOGEE,PERIGEE,DECAYED
51858.0,STARLINK-3563,PAYLOAD,2023-06-18 17:07:15,15.08838056,0.0001007,53.2155,165.7415,80.8799,279.2307,2.9718e-05,1.85e-06,0.0,0 STARLINK-3563,1 51858U 22022G   23169.71337218  .00000185  00000-0  29718-4 0  9993,2 51858  53.2155 165.7415 0001007  80.8799 279.2307 15.08838056 72810,6917.886,95.438,540.448,539.055,0.0
51858.0,STARLINK-3563,PAYLOAD,2023-06-19 09:01:06,15.08838534,9.9e-05,53.2157,162.7664,83.3633,276.7472,7.7592e-05,9.47e-06,0.0,0 STARLINK-3563,1 51858U 22022G   23170.37577094  .00000947  00000-0  77592-4 0  9994,2 51858  53.2157 162.7664 0000990  83.3633 276.7472 15.08838534 72917,6917.885,95.438,540.435,539.065,0.0
51858.0,STARLINK-3563,PAYLOAD,2023-06-19 16:58:02,15.08840488,9.92e-05,53.2157,161.2799,82.1169,277.9936,7.0835e-05,8.4e-06,0.0,0 STARLINK-3563,1 51858U 22022G   23170.70696999  .00000840  00000-0  70835-4 0  9992,2 51858  53.2157 161.2799 0000992  82.1169 277.9936 15.08840488 72967,6917.879,95.438,540.43,539.058,0.0
51858.0,STARLINK-3563,PAYLOAD,2023-06-20 08:51:53,15.08842182,0.0001001,53.2158,158.3061,82.3752,277.7354,4.6001e-05,4.44e-06,0.0,0 STARLINK-3563,1 51858U 22022G   23171.36936880  .00000444  00000-0  46001-4 0  9999,2 51858  53.2158 158.3061 0001001  82.3752 277.7354 15.08842182 73066,6917.874,95.437,540.431,539.046,0.0
51858.0,STARLINK-3563,PAYLOAD,2023-06-21 02:21:07,15.08843212,0.0001,53.2159,155.035,82.247,277.8636,4.0183e-05,3.52e-06,0.0,0 STARLINK-3563,1 51858U 22022G   23172.09800684  .00000352  00000-0  40183-4 0  9995,2 51858  53.2159 155.0350 0001000  82.2470 277.8636 15.08843212 73178,6917.871,95.437,540.427,539.044,0.0
51858.0,STARLINK-3563,PAYLOAD,2023-06-21 08:42:40,15.08844827,0.0001054,53.2159,153.8453,85.602,274.5093,5.3695e-05,5.67e-06,0.0,0 STARLINK-3563,1 51858U 22022G   23172.36296473  .00000567  00000-0  53695-4 0  9990,2 51858  53.2159 153.8453 0001054  85.6020 274.5093 15.08844827 73214,6917.866,95.437,540.46,539.001,0.0
51858.0,STARLINK-3563,PAYLOAD,2023-06-22 02:11:54,15.08847883,0.0002579,53.2162,150.5739,104.4271,255.7008,5.4122e-05,5.73e-06,0.0,0 STARLINK-3563,1 51858U 22022G   23173.09160307  .00000573  00000-0  54122-4 0  9990,2 51858  53.2162 150.5739 0002579 104.4271 255.7008 15.08847883 73324,6917.856,95.437,541.505,537.937,0.0
51858.0,STARLINK-3563,PAYLOAD,2023-06-22 08:33:28,15.08826352,0.0001333,53.2173,149.3841,89.8356,270.2789,-0.00010058,-1.888e-05,0.0,0 STARLINK-3563,1 51858U 22022G   23173.35658209 -.00001888  00000-0 -10058-3 0  9993,2 51858  53.2173 149.3841 0001333  89.8356 270.2789 15.08826352 73363,6917.922,95.438,540.709,538.865,0.0
51858.0,STARLINK-3563,PAYLOAD,2023-06-22 14:55:00,15.08836703,0.0001063,53.2162,148.1968,82.0465,278.0648,-1.1685e-05,-4.74e-06,0.0,0 STARLINK-3563,1 51858U 22022G   23173.62153258 -.00000474  00000-0 -11685-4 0  9995,2 51858  53.2162 148.1968 0001063  82.0465 278.0648 15.08836703 73400,6917.89,95.438,540.491,539.02,0.0
51858.0,STARLINK-3563,PAYLOAD,2023-06-23 06:48:51,15.0884536,0.0001063,53.2162,145.2233,89.7169,270.3945,3.9779e-05,3.45e-06,0.0,0 STARLINK-3563,1 51858U 22022G   23174.28392630  .00000345  00000-0  39779-4 0  9996,2 51858  53.2162 145.2233 0001063  89.7169 270.3945 15.08845360 73503,6917.864,95.437,540.464,538.994,0.0
51858.0,STARLINK-3563,PAYLOAD,2023-06-24 01:53:30,15.08831967,0.0002105,53.2164,141.6553,104.1804,255.9422,-5.6181e-05,-1.182e-05,0.0,0 STARLINK-3563,1 51858U 22022G   23175.07882125 -.00001182  00000-0 -56181-4 0  9995,2 51858  53.2164 141.6553 0002105 104.1804 255.9422 15.08831967 73626,6917.905,95.438,541.226,538.314,0.0
51858.0,STARLINK-3563,PAYLOAD,2023-06-25 03:19:41,15.08818459,0.0001513,53.2177,136.8993,106.1915,253.9243,-0.0001653,-2.916e-05,0.0,0 STARLINK-3563,1 51858U 22022G   23176.13867523 -.00002916  00000-0 -16530-3 0  9997,2 51858  53.2177 136.8993 0001513 106.1915 253.9243 15.08818459 73788,6917.946,95.439,540.858,538.765,0.0
51858.0,STARLINK-3563,PAYLOAD,2023-06-25 06:30:23,15.08873726,0.0001234,53.2167,136.3026,92.8621,267.2513,0.00029145,4.358e-05,0.0,0 STARLINK-3563,1 51858U 22022G   23176.27110569  .00004358  00000-0  29145-3 0  9999,2 51858  53.2167 136.3026 0001234  92.8621 267.2513 15.08873726 73803,6917.777,95.435,540.496,538.789,0.0
51858.0,STARLINK-3563,PAYLOAD,2023-06-25 14:27:21,15.08845352,0.0001981,53.2179,134.8177,79.4694,280.6521,6.7607e-05,7.88e-06,0.0,0 STARLINK-3563,1 51858U 22022G   23176.60233116  .00000788  00000-0  67607-4 0  9999,2 51858  53.2179 134.8177 0001981  79.4694 280.6521 15.08845352 73853,6917.864,95.437,541.099,538.359,0.0
51858.0,STARLINK-3563,PAYLOAD,2023-06-26 03:10:28,15.08823984,0.0001182,53.2155,132.436,84.4159,275.6968,-5.5861e-05,-1.176e-05,0.0,0 STARLINK-3563,1 51858U 22022G   23177.13226927 -.00001176  00000-0 -55861-4 0  9993,2 51858  53.2155 132.4360 0001182  84.4159 275.6968 15.08823984 73935,6917.929,95.439,540.612,538.977,0.0
51858.0,STARLINK-3563,PAYLOAD,2023-06-26 14:18:09,15.08834006,0.0001249,53.2168,130.3549,84.0063,276.1071,2.8061e-05,1.59e-06,0.0,0 STARLINK-3563,1 51858U 22022G   23177.59594346  .00000159  00000-0  28061-4 0  9996,2 51858  53.2168 130.3549 0001249  84.0063 276.1071 15.08834006 74006,6917.899,95.438,540.628,538.9,0.0
51858.0,STARLINK-3563,PAYLOAD,2023-06-27 03:01:13,15.08845293,0.0001235,53.2163,127.9764,84.5115,275.6018,8.3265e-05,1.038e-05,0.0,0 STARLINK-3563,1 51858U 22022G   23178.12585530  .00001038  00000-0  83265-4 0  9995,2 51858  53.2163 127.9764 0001235  84.5115 275.6018 15.08845293 74083,6917.864,95.437,540.584,538.875,0.0
51858.0,STARLINK-3563,PAYLOAD,2023-06-27 14:08:55,15.08861322,0.0001321,53.2164,125.8948,81.3256,278.7886,-0.0001551,-2.757e-05,0.0,0 STARLINK-3563,1 51858U 22022G   23178.58952922 -.00002757  00000-0 -15510-3 0  9996,2 51858  53.2164 125.8948 0001321  81.3256 278.7886 15.08861322 74158,6917.815,95.436,540.594,538.766,0.0
51858.0,STARLINK-3563,PAYLOAD,2023-06-28 02:52:01,15.08834577,0.0001308,53.2175,123.5154,89.0015,271.1127,0.00022464,3.289e-05,0.0,0 STARLINK-3563,1 51858U 22022G   23179.11945917  .00003289  00000-0  22464-3 0  9997,2 51858  53.2175 123.5154 0001308  89.0015 271.1127 15.08834577 74233,6917.897,95.438,540.667,538.857,0.0
51858.0,STARLINK-3563,PAYLOAD,2023-06-29 04:18:11,15.08845432,0.0001431,53.2173,118.7559,95.0258,265.0897,2.8978e-06,-2.42e-06,0.0,0 STARLINK-3563,1 51858U 22022G   23180.17929856 -.00000242  00000-0  28978-5 0  9994,2 51858  53.2173 118.7559 0001431  95.0258 265.0897 15.08845432 74394,6917.864,95.437,540.719,538.739,0.0
51858.0,STARLINK-3563,PAYLOAD,2023-07-01 02:24:23,15.08829272,0.0001474,53.2184,110.1365,107.6916,252.4238,-2.4306e-05,-6.75e-06,0.0,0 STARLINK-3563,1 51858U 22022G   23182.10027219 -.00000675  00000-0 -24306-4 0  9992,2 51858  53.2184 110.1365 0001474 107.6916 252.4238 15.08829272 74680,6917.913,95.438,540.798,538.758,0.0
51858.0,STARLINK-3563,PAYLOAD,2023-07-02 02:15:09,15.0884479,0.0001265,53.2178,105.677,102.6014,257.512,6.6926e-05,7.78e-06,0.0,0 STARLINK-3563,1 51858U 22022G   23183.09386408  .00000778  00000-0  66926-4 0  9995,2 51858  53.2178 105.6770 0001265 102.6014 257.5120 15.08844790 74839,6917.866,95.437,540.606,538.856,0.0
51858.0,STARLINK-3563,PAYLOAD,2023-07-03 02:05:57,15.08837463,0.0001232,53.2174,101.2138,85.092,275.0213,0.00013608,1.878e-05,0.0,0 STARLINK-3563,1 51858U 22022G   23184.08747044  .00001878  00000-0  13608-3 0  9992,2 51858  53.2174 101.2138 0001232  85.0920 275.0213 15.08837463 74982,6917.888,95.438,540.605,538.901,0.0
51858.0,STARLINK-3563,PAYLOAD,2023-07-04 03:32:08,15.0879999,0.0001386,53.2168,96.4559,104.4847,255.6299,0.00078256,0.00012175,0.0,0 STARLINK-3563,1 51858U 22022G   23185.14731543  .00012175  00000-0  78256-3 0  9999,2 51858  53.2168  96.4559 0001386 104.4847 255.6299 15.08799990 75140,6918.003,95.44,540.827,538.909,0.0
51858.0,STARLINK-3563,PAYLOAD,2023-07-05 00:12:08,15.08846188,0.0001225,53.2165,92.591,85.5699,274.5433,-0.00010979,-2.035e-05,0.0,0 STARLINK-3563,1 51858U 22022G   23186.00843016 -.00002035  00000-0 -10979-3 0  9998,2 51858  53.2165  92.5910 0001225  85.5699 274.5433 15.08846188 75277,6917.861,95.437,540.574,538.879,0.0
51858.0,STARLINK-3563,PAYLOAD,2023-07-06 03:13:41,15.08846247,0.000133,53.2178,87.5334,102.6628,257.4513,3.9536e-05,3.41e-06,0.0,0 STARLINK-3563,1 51858U 22022G   23187.13450586  .00000341  00000-0  39536-4 0  9996,2 51858  53.2178  87.5334 0001330 102.6628 257.4513 15.08846247 75449,6917.861,95.437,540.646,538.806,0.0
51858.0,STARLINK-3563,PAYLOAD,2023-07-06 15:56:47,15.08831293,0.0001323,53.2177,85.1546,96.1419,263.9724,0.0001672,2.373e-05,0.0,0 STARLINK-3563,1 51858U 22022G   23187.66443359  .00002373  00000-0  16720-3 0  9990,2 51858  53.2177  85.1546 0001323  96.1419 263.9724 15.08831293 75524,6917.907,95.438,540.687,538.857,0.0
51858.0,STARLINK-3563,PAYLOAD,2023-07-07 03:04:28,15.08845781,0.0001246,53.2182,83.0751,89.6125,270.501,0.00010089,1.318e-05,0.0,0 STARLINK-3563,1 51858U 22022G   23188.12810551  .00001318  00000-0  10089-3 0  9994,2 51858  53.2182  83.0751 0001246  89.6125 270.5010 15.08845781 75596,6917.863,95.437,540.59,538.866,0.0
51858.0,STARLINK-3563,PAYLOAD,2023-07-08 01:19:52,15.08844632,0.0001207,53.2182,78.9128,91.4064,268.7066,7.7235e-05,9.42e-06,0.0,0 STARLINK-3563,1 51858U 22022G   23189.05546803  .00000942  00000-0  77235-4 0  9992,2 51858  53.2182  78.9128 0001207  91.4064 268.7066 15.08844632 75737,6917.866,95.437,540.566,538.896,0.0
51858.0,STARLINK-3563,PAYLOAD,2023-07-08 09:16:48,15.08834846,0.000131,53.2179,77.4234,80.074,280.04,-8.0365e-06,-4.16e-06,0.0,0 STARLINK-3563,1 51858U 22022G   23189.38667612 -.00000416  00000-0 -80365-5 0  9997,2 51858  53.2179  77.4234 0001310  80.0740 280.0400 15.08834846 75785,6917.896,95.438,540.667,538.855,0.0
